[
    {
        "id": 1,
        "name": "ĞÑ„Ğ³Ğ°Ğ½Ğ¸ÑÑ‚Ğ°Ğ½",
        "flag": "ğŸ‡¦ğŸ‡«",
        "dial_code": "+93"
    },
    {
        "id": 2,
        "name": "ĞÑ€Ğ¼ĞµĞ½Ğ¸Ñ",
        "flag": "ğŸ‡¦ğŸ‡²",
        "dial_code": "+374"
    },
    {
        "id": 3,
        "name": "ĞĞ²ÑÑ‚Ñ€Ğ°Ğ»Ğ¸Ñ",
        "flag": "ğŸ‡¦ğŸ‡º",
        "dial_code": "+61"
    },
    {
        "id": 4,
        "name": "Ğ‘Ñ€Ğ°Ğ·Ğ¸Ğ»Ğ¸Ñ",
        "flag": "ğŸ‡§ğŸ‡·",
        "dial_code": "+55"
    },
    {
        "id": 5,
        "name": "ĞšĞ°Ğ½Ğ°Ğ´Ğ°",
        "flag": "ğŸ‡¨ğŸ‡¦",
        "dial_code": "+1"
    },
    {
        "id": 6,
        "name": "ĞšĞ¸Ñ‚Ğ°Ğ¹",
        "flag": "ğŸ‡¨ğŸ‡³",
        "dial_code": "+86"
    },
    {
        "id": 7,
        "name": "Ğ¤Ñ€Ğ°Ğ½Ñ†Ğ¸Ñ",
        "flag": "ğŸ‡«ğŸ‡·",
        "dial_code": "+33"
    },
    {
        "id": 8,
        "name": "Ğ“ĞµÑ€Ğ¼Ğ°Ğ½Ğ¸Ñ",
        "flag": "ğŸ‡©ğŸ‡ª",
        "dial_code": "+49"
    },
    {
        "id": 9,
        "name": "Ğ˜Ğ½Ğ´Ğ¸Ñ",
        "flag": "ğŸ‡®ğŸ‡³",
        "dial_code": "+91"
    },
    {
        "id": 10,
        "name": "Ğ¯Ğ¿Ğ¾Ğ½Ğ¸Ñ",
        "flag": "ğŸ‡¯ğŸ‡µ",
        "dial_code": "+81"
    }
]
